{
  "type": "FeatureCollection",
  "features": [
    {
      "type": "Feature",
      "properties": {
        "norad_id": 34907,
        "name": "COSMOS 2251 DEB",
        "group": "cosmos-2251-debris",
        "lat": 53.65887461153201,
        "lon": -168.94702733432175,
        "alt_km": 427.6951922968865,
        "timestamp": "2025-12-19T06:59:44.302155+00:00",
        "meta_object_name": "COSMOS 2251 DEB",
        "meta_object_id": "1993-036ADC",
        "meta_epoch": "2025-12-18T02:32:53.800800",
        "meta_mean_motion": 15.47692445,
        "meta_eccentricity": 0.00196953,
        "meta_inclination": 73.9694,
        "meta_ra_of_asc_node": 36.6616,
        "meta_arg_of_pericenter": 333.5312,
        "meta_mean_anomaly": 26.4892,
        "meta_ephemeris_type": 0,
        "meta_classification_type": "U",
        "meta_norad_cat_id": 34907,
        "meta_element_set_no": 999,
        "meta_rev_at_epoch": 88056,
        "meta_bstar": 0.0061125728,
        "meta_mean_motion_dot": 0.00332113,
        "meta_mean_motion_ddot": 0,
        "tle_line1": "1 34907U 93036ADC 25352.10617825  .00332113  00000+0  61126-2 0  9991",
        "tle_line2": "2 34907  73.9694  36.6616 0019695 333.5312  26.4892 15.47692445880566"
      },
      "geometry": {
        "type": "Point",
        "coordinates": [
          -168.94702733432175,
          53.65887461153201
        ]
      }
    },
    {
      "type": "Feature",
      "properties": {
        "norad_id": 34908,
        "name": "COSMOS 2251 DEB",
        "group": "cosmos-2251-debris",
        "lat": 51.87023762990612,
        "lon": 170.26252515227333,
        "alt_km": 766.3963910204611,
        "timestamp": "2025-12-19T06:59:44.302165+00:00",
        "meta_object_name": "COSMOS 2251 DEB",
        "meta_object_id": "1993-036ADD",
        "meta_epoch": "2025-12-17T20:10:36.409152",
        "meta_mean_motion": 14.37412931,
        "meta_eccentricity": 0.00402787,
        "meta_inclination": 74.0579,
        "meta_ra_of_asc_node": 14.2828,
        "meta_arg_of_pericenter": 28.7986,
        "meta_mean_anomaly": 151.4446,
        "meta_ephemeris_type": 0,
        "meta_classification_type": "U",
        "meta_norad_cat_id": 34908,
        "meta_element_set_no": 999,
        "meta_rev_at_epoch": 87352,
        "meta_bstar": 0.00041959022,
        "meta_mean_motion_dot": 1.24e-05,
        "meta_mean_motion_ddot": 0,
        "tle_line1": "1 34908U 93036ADD 25351.84069918  .00001240  00000+0  41959-3 0  9993",
        "tle_line2": "2 34908  74.0579  14.2828 0040278  28.7986 151.4446 14.37412931873529"
      },
      "geometry": {
        "type": "Point",
        "coordinates": [
          170.26252515227333,
          51.87023762990612
        ]
      }
    },
    {
      "type": "Feature",
      "properties": {
        "norad_id": 34909,
        "name": "COSMOS 2251 DEB",
        "group": "cosmos-2251-debris",
        "lat": 46.72553948213712,
        "lon": -134.0337107760898,
        "alt_km": 608.3548080490664,
        "timestamp": "2025-12-19T06:59:44.302175+00:00",
        "meta_object_name": "COSMOS 2251 DEB",
        "meta_object_id": "1993-036ADE",
        "meta_epoch": "2025-12-18T06:01:53.569344",
        "meta_mean_motion": 14.77881154,
        "meta_eccentricity": 0.00841448,
        "meta_inclination": 74.015,
        "meta_ra_of_asc_node": 65.7361,
        "meta_arg_of_pericenter": 200.3056,
        "meta_mean_anomaly": 159.4768,
        "meta_ephemeris_type": 0,
        "meta_classification_type": "U",
        "meta_norad_cat_id": 34909,
        "meta_element_set_no": 999,
        "meta_rev_at_epoch": 66933,
        "meta_bstar": 0.00045425965,
        "meta_mean_motion_dot": 3.432e-05,
        "meta_mean_motion_ddot": 0,
        "tle_line1": "1 34909U 93036ADE 25352.25131446  .00003432  00000+0  45426-3 0  9994",
        "tle_line2": "2 34909  74.0150  65.7361 0084144 200.3056 159.4768 14.77881154669332"
      },
      "geometry": {
        "type": "Point",
        "coordinates": [
          -134.0337107760898,
          46.72553948213712
        ]
      }
    },
    {
      "type": "Feature",
      "properties": {
        "norad_id": 34910,
        "name": "COSMOS 2251 DEB",
        "group": "cosmos-2251-debris",
        "lat": 24.744828814275706,
        "lon": 98.74829974138875,
        "alt_km": 1467.0076125064897,
        "timestamp": "2025-12-19T06:59:44.302185+00:00",
        "meta_object_name": "COSMOS 2251 DEB",
        "meta_object_id": "1993-036ADF",
        "meta_epoch": "2025-12-16T00:48:30.580128",
        "meta_mean_motion": 13.37690746,
        "meta_eccentricity": 0.04679747,
        "meta_inclination": 73.876,
        "meta_ra_of_asc_node": 96.2259,
        "meta_arg_of_pericenter": 214.6056,
        "meta_mean_anomaly": 328.1497,
        "meta_ephemeris_type": 0,
        "meta_classification_type": "U",
        "meta_norad_cat_id": 34910,
        "meta_element_set_no": 999,
        "meta_rev_at_epoch": 81568,
        "meta_bstar": 0.0011529423,
        "meta_mean_motion_dot": 1.118e-05,
        "meta_mean_motion_ddot": 0,
        "tle_line1": "1 34910U 93036ADF 25350.03368727  .00001118  00000+0  11529-2 0  9999",
        "tle_line2": "2 34910  73.8760  96.2259 0467974 214.6056 328.1497 13.37690746815682"
      },
      "geometry": {
        "type": "Point",
        "coordinates": [
          98.74829974138875,
          24.744828814275706
        ]
      }
    },
    {
      "type": "Feature",
      "properties": {
        "norad_id": 34911,
        "name": "COSMOS 2251 DEB",
        "group": "cosmos-2251-debris",
        "lat": 26.591963424452793,
        "lon": 44.022739687160076,
        "alt_km": 748.0131115514469,
        "timestamp": "2025-12-19T06:59:44.302195+00:00",
        "meta_object_name": "COSMOS 2251 DEB",
        "meta_object_id": "1993-036ADG",
        "meta_epoch": "2025-12-18T03:01:44.907744",
        "meta_mean_motion": 14.59380767,
        "meta_eccentricity": 0.00838464,
        "meta_inclination": 74.0407,
        "meta_ra_of_asc_node": 234.4788,
        "meta_arg_of_pericenter": 358.5052,
        "meta_mean_anomaly": 153.7057,
        "meta_ephemeris_type": 0,
        "meta_classification_type": "U",
        "meta_norad_cat_id": 34911,
        "meta_element_set_no": 999,
        "meta_rev_at_epoch": 88665,
        "meta_bstar": 0.00011478995,
        "meta_mean_motion_dot": 5.38e-06,
        "meta_mean_motion_ddot": 0,
        "tle_line1": "1 34911U 93036ADG 25352.12621421  .00000538  00000+0  11479-3 0  9995",
        "tle_line2": "2 34911  74.0407 234.4788 0083846 358.5052 153.7057 14.59380767886656"
      },
      "geometry": {
        "type": "Point",
        "coordinates": [
          44.022739687160076,
          26.591963424452793
        ]
      }
    },
    {
      "type": "Feature",
      "properties": {
        "norad_id": 34913,
        "name": "COSMOS 2251 DEB",
        "group": "cosmos-2251-debris",
        "lat": -63.41897839173371,
        "lon": -124.424823436346,
        "alt_km": 782.3168773792759,
        "timestamp": "2025-12-19T06:59:44.302205+00:00",
        "meta_object_name": "COSMOS 2251 DEB",
        "meta_object_id": "1993-036ADJ",
        "meta_epoch": "2025-12-18T11:46:22.154880",
        "meta_mean_motion": 14.3463922,
        "meta_eccentricity": 0.00205748,
        "meta_inclination": 74.0285,
        "meta_ra_of_asc_node": 271.9591,
        "meta_arg_of_pericenter": 20.2636,
        "meta_mean_anomaly": 96.5322,
        "meta_ephemeris_type": 0,
        "meta_classification_type": "U",
        "meta_norad_cat_id": 34913,
        "meta_element_set_no": 999,
        "meta_rev_at_epoch": 65270,
        "meta_bstar": 4.1914409e-05,
        "meta_mean_motion_dot": 9.3e-07,
        "meta_mean_motion_ddot": 0,
        "tle_line1": "1 34913U 93036ADJ 25352.49053420  .00000093  00000+0  41914-4 0  9999",
        "tle_line2": "2 34913  74.0285 271.9591 0020574  20.2636  96.5322 14.34639220652700"
      },
      "geometry": {
        "type": "Point",
        "coordinates": [
          -124.424823436346,
          -63.41897839173371
        ]
      }
    },
    {
      "type": "Feature",
      "properties": {
        "norad_id": 34918,
        "name": "COSMOS 2251 DEB",
        "group": "cosmos-2251-debris",
        "lat": -13.701626387586998,
        "lon": -62.86561462598419,
        "alt_km": 688.4020421998293,
        "timestamp": "2025-12-19T06:59:44.302216+00:00",
        "meta_object_name": "COSMOS 2251 DEB",
        "meta_object_id": "1993-036ADP",
        "meta_epoch": "2025-12-18T06:44:15.082368",
        "meta_mean_motion": 14.61294427,
        "meta_eccentricity": 0.00332984,
        "meta_inclination": 74.0711,
        "meta_ra_of_asc_node": 303.0548,
        "meta_arg_of_pericenter": 269.5934,
        "meta_mean_anomaly": 160.816,
        "meta_ephemeris_type": 0,
        "meta_classification_type": "U",
        "meta_norad_cat_id": 34918,
        "meta_element_set_no": 999,
        "meta_rev_at_epoch": 65417,
        "meta_bstar": 0.0015824727,
        "meta_mean_motion_dot": 7.853e-05,
        "meta_mean_motion_ddot": 0,
        "tle_line1": "1 34918U 93036ADP 25352.28073012  .00007853  00000+0  15825-2 0  9991",
        "tle_line2": "2 34918  74.0711 303.0548 0033298 269.5934 160.8160 14.61294427654178"
      },
      "geometry": {
        "type": "Point",
        "coordinates": [
          -62.86561462598419,
          -13.701626387586998
        ]
      }
    }
  ]
}